{
  "type": "FeatureCollection",
  "features": [
    {
      "type": "Feature",
      "properties": {
        "norad_id": 40938,
        "name": "BEIDOU-3S IGSO-2S (C56)",
        "group": "gnss",
        "lat": 30.46429713630273,
        "lon": -69.00269424765337,
        "alt_km": 35998.0733501515,
        "timestamp": "2025-12-26T07:29:18.698588+00:00",
        "meta_object_name": "BEIDOU-3S IGSO-2S (C56)",
        "meta_object_id": "2015-053A",
        "meta_epoch": "2025-12-25T16:15:10.880064",
        "meta_mean_motion": 1.00267373,
        "meta_eccentricity": 0.006068,
        "meta_inclination": 49.4905,
        "meta_ra_of_asc_node": 260.8539,
        "meta_arg_of_pericenter": 188.4891,
        "meta_mean_anomaly": 344.6417,
        "meta_ephemeris_type": 0,
        "meta_classification_type": "U",
        "meta_norad_cat_id": 40938,
        "meta_element_set_no": 999,
        "meta_rev_at_epoch": 3761,
        "meta_bstar": 0,
        "meta_mean_motion_dot": -1.2e-06,
        "meta_mean_motion_ddot": 0,
        "tle_line1": "1 40938U 15053A   25359.67720926 -.00000120  00000+0  00000+0 0  9993",
        "tle_line2": "2 40938  49.4905 260.8539 0060680 188.4891 344.6417  1.00267373 37614"
      },
      "geometry": {
        "type": "Point",
        "coordinates": [
          -69.00269424765337,
          30.46429713630273
        ]
      }
    },
    {
      "type": "Feature",
      "properties": {
        "norad_id": 41019,
        "name": "GPS BIIF-11 (PRN 10)",
        "group": "gnss",
        "lat": 23.76933075961619,
        "lon": 54.21766675392864,
        "alt_km": 20453.588234061874,
        "timestamp": "2025-12-26T07:29:18.698599+00:00",
        "meta_object_name": "GPS BIIF-11 (PRN 10)",
        "meta_object_id": "2015-062A",
        "meta_epoch": "2025-12-25T18:32:56.771520",
        "meta_mean_motion": 2.00567082,
        "meta_eccentricity": 0.01111209,
        "meta_inclination": 56.8416,
        "meta_ra_of_asc_node": 37.4983,
        "meta_arg_of_pericenter": 230.2755,
        "meta_mean_anomaly": 128.8007,
        "meta_ephemeris_type": 0,
        "meta_classification_type": "U",
        "meta_norad_cat_id": 41019,
        "meta_element_set_no": 999,
        "meta_rev_at_epoch": 7435,
        "meta_bstar": 0,
        "meta_mean_motion_dot": -4.8e-07,
        "meta_mean_motion_ddot": 0,
        "tle_line1": "1 41019U 15062A   25359.77287930 -.00000048  00000+0  00000+0 0  9997",
        "tle_line2": "2 41019  56.8416  37.4983 0111120 230.2755 128.8007  2.00567082 74356"
      },
      "geometry": {
        "type": "Point",
        "coordinates": [
          54.21766675392864,
          23.76933075961619
        ]
      }
    },
    {
      "type": "Feature",
      "properties": {
        "norad_id": 41028,
        "name": "GSAT-15 (GAGAN/PRN 139)",
        "group": "gnss",
        "lat": -0.014154625656895221,
        "lon": -59.08778001777148,
        "alt_km": 35780.948996390485,
        "timestamp": "2025-12-26T07:29:18.698613+00:00",
        "meta_object_name": "GSAT-15 (GAGAN/PRN 139)",
        "meta_object_id": "2015-065A",
        "meta_epoch": "2025-12-25T23:19:56.212032",
        "meta_mean_motion": 1.00270756,
        "meta_eccentricity": 0.00024024,
        "meta_inclination": 0.0162,
        "meta_ra_of_asc_node": 309.0992,
        "meta_arg_of_pericenter": 294.1279,
        "meta_mean_anomaly": 294.9916,
        "meta_ephemeris_type": 0,
        "meta_classification_type": "U",
        "meta_norad_cat_id": 41028,
        "meta_element_set_no": 999,
        "meta_rev_at_epoch": 3706,
        "meta_bstar": 0,
        "meta_mean_motion_dot": -2.36e-06,
        "meta_mean_motion_ddot": 0,
        "tle_line1": "1 41028U 15065A   25359.97217838 -.00000236  00000+0  00000+0 0  9991",
        "tle_line2": "2 41028   0.0162 309.0992 0002402 294.1279 294.9916  1.00270756 37064"
      },
      "geometry": {
        "type": "Point",
        "coordinates": [
          -59.08778001777148,
          -0.014154625656895221
        ]
      }
    },
    {
      "type": "Feature",
      "properties": {
        "norad_id": 41174,
        "name": "GSAT0209 (GALILEO 12)",
        "group": "gnss",
        "lat": -11.216181758582824,
        "lon": -66.22887757343146,
        "alt_km": 23230.247107735475,
        "timestamp": "2025-12-26T07:29:18.698626+00:00",
        "meta_object_name": "GSAT0209 (GALILEO 12)",
        "meta_object_id": "2015-079A",
        "meta_epoch": "2025-12-21T21:22:17.332896",
        "meta_mean_motion": 1.70474556,
        "meta_eccentricity": 0.00025231,
        "meta_inclination": 55.7178,
        "meta_ra_of_asc_node": 106.13,
        "meta_arg_of_pericenter": 342.7574,
        "meta_mean_anomaly": 17.2091,
        "meta_ephemeris_type": 0,
        "meta_classification_type": "U",
        "meta_norad_cat_id": 41174,
        "meta_element_set_no": 999,
        "meta_rev_at_epoch": 6175,
        "meta_bstar": 0,
        "meta_mean_motion_dot": 5e-08,
        "meta_mean_motion_ddot": 0,
        "tle_line1": "1 41174U 15079A   25355.89047839  .00000005  00000+0  00000+0 0  9990",
        "tle_line2": "2 41174  55.7178 106.1300 0002523 342.7574  17.2091  1.70474556 61755"
      },
      "geometry": {
        "type": "Point",
        "coordinates": [
          -66.22887757343146,
          -11.216181758582824
        ]
      }
    },
    {
      "type": "Feature",
      "properties": {
        "norad_id": 41175,
        "name": "GSAT0208 (GALILEO 11)",
        "group": "gnss",
        "lat": 44.7984260945229,
        "lon": 148.5680813668428,
        "alt_km": 23214.789577364463,
        "timestamp": "2025-12-26T07:29:18.698648+00:00",
        "meta_object_name": "GSAT0208 (GALILEO 11)",
        "meta_object_id": "2015-079B",
        "meta_epoch": "2025-12-24T10:58:05.169792",
        "meta_mean_motion": 1.70474188,
        "meta_eccentricity": 0.0001919,
        "meta_inclination": 55.7178,
        "meta_ra_of_asc_node": 106.0566,
        "meta_arg_of_pericenter": 349.2148,
        "meta_mean_anomaly": 10.7717,
        "meta_ephemeris_type": 0,
        "meta_classification_type": "U",
        "meta_norad_cat_id": 41175,
        "meta_element_set_no": 999,
        "meta_rev_at_epoch": 6221,
        "meta_bstar": 0,
        "meta_mean_motion_dot": 1.6e-07,
        "meta_mean_motion_ddot": 0,
        "tle_line1": "1 41175U 15079B   25358.45700428  .00000016  00000+0  00000+0 0  9998",
        "tle_line2": "2 41175  55.7178 106.0566 0001919 349.2148  10.7717  1.70474188 62212"
      },
      "geometry": {
        "type": "Point",
        "coordinates": [
          148.5680813668428,
          44.7984260945229
        ]
      }
    },
    {
      "type": "Feature",
      "properties": {
        "norad_id": 41241,
        "name": "IRNSS-1E",
        "group": "gnss",
        "lat": -31.928330671175775,
        "lon": -43.10842912120374,
        "alt_km": 35756.729843204135,
        "timestamp": "2025-12-26T07:29:18.698669+00:00",
        "meta_object_name": "IRNSS-1E",
        "meta_object_id": "2016-003A",
        "meta_epoch": "2025-12-24T15:55:26.719680",
        "meta_mean_motion": 1.0026854,
        "meta_eccentricity": 0.00215442,
        "meta_inclination": 32.8513,
        "meta_ra_of_asc_node": 62.279,
        "meta_arg_of_pericenter": 188.9872,
        "meta_mean_anomaly": 192.7105,
        "meta_ephemeris_type": 0,
        "meta_classification_type": "U",
        "meta_norad_cat_id": 41241,
        "meta_element_set_no": 999,
        "meta_rev_at_epoch": 3633,
        "meta_bstar": 0,
        "meta_mean_motion_dot": -2.92e-06,
        "meta_mean_motion_ddot": 0,
        "tle_line1": "1 41241U 16003A   25358.66350370 -.00000292  00000+0  00000+0 0  9997",
        "tle_line2": "2 41241  32.8513  62.2790 0021544 188.9872 192.7105  1.00268540 36337"
      },
      "geometry": {
        "type": "Point",
        "coordinates": [
          -43.10842912120374,
          -31.928330671175775
        ]
      }
    },
    {
      "type": "Feature",
      "properties": {
        "norad_id": 41328,
        "name": "GPS BIIF-12 (PRN 32)",
        "group": "gnss",
        "lat": -24.658874864279,
        "lon": 77.88231152381718,
        "alt_km": 20165.22139193556,
        "timestamp": "2025-12-26T07:29:18.698692+00:00",
        "meta_object_name": "GPS BIIF-12 (PRN 32)",
        "meta_object_id": "2016-007A",
        "meta_epoch": "2025-12-24T08:38:21.777792",
        "meta_mean_motion": 2.00560136,
        "meta_eccentricity": 0.00927395,
        "meta_inclination": 55.4125,
        "meta_ra_of_asc_node": 96.3958,
        "meta_arg_of_pericenter": 243.8734,
        "meta_mean_anomaly": 115.1833,
        "meta_ephemeris_type": 0,
        "meta_classification_type": "U",
        "meta_norad_cat_id": 41328,
        "meta_element_set_no": 999,
        "meta_rev_at_epoch": 7233,
        "meta_bstar": 0,
        "meta_mean_motion_dot": 1.2e-07,
        "meta_mean_motion_ddot": 0,
        "tle_line1": "1 41328U 16007A   25358.35997428  .00000012  00000+0  00000+0 0  9993",
        "tle_line2": "2 41328  55.4125  96.3958 0092739 243.8734 115.1833  2.00560136 72333"
      },
      "geometry": {
        "type": "Point",
        "coordinates": [
          77.88231152381718,
          -24.658874864279
        ]
      }
    }
  ]
}